O3B MPOWER F1           
1 54755U 22174A   23218.44735042 -.00000022  00000+0  00000+0 0  9990
2 54755   0.0405  11.2957 0003637 198.4356  27.0089  5.00111870 13022
